#cP2025  1  1  0  0  0.00000000      96 ORBIT IGS20 HLM  IGS
## 2347 259200.00000000   900.00000000 60676 0.0000000000000
+   32   G01G02G03G04G05G06G07G08G09G10G11G12G13G14G15G16G17
+        G18G19G20G21G22G23G24G25G26G27G28G29G30G31G32  0  0
+          0  0  0  0  0  0  0  0  0  0  0  0  0  0  0  0  0
+          0  0  0  0  0  0  0  0  0  0  0  0  0  0  0  0  0
+          0  0  0  0  0  0  0  0  0  0  0  0  0  0  0  0  0
++         5  2  2  2  2  2  1  2  2  2  2  2  2  2  2  2  2
++         2  2  2  2  2  2  2  2  1  2  2  2  2  1  2  0  0
++         0  0  0  0  0  0  0  0  0  0  0  0  0  0  0  0  0
++         0  0  0  0  0  0  0  0  0  0  0  0  0  0  0  0  0
++         0  0  0  0  0  0  0  0  0  0  0  0  0  0  0  0  0
%c G  cc GPS ccc cccc cccc cccc cccc ccccc ccccc ccccc ccccc
%c cc cc ccc ccc cccc cccc cccc cccc ccccc ccccc ccccc ccccc
%f  1.2500000  1.025000000  0.00000000000  0.000000000000000
%f  0.0000000  0.000000000  0.00000000000  0.000000000000000
%i    0    0    0    0      0      0      0      0         0
%i    0    0    0    0      0      0      0      0         0
/* FINAL ORBIT COMBINATION FROM WEIGHTED AVERAGE OF:        
/* cod emr esa gfz grg jgx jpl mit ngs sio                  
/* REFERENCED TO IGS TIME (IGST) AND TO WEIGHTED MEAN POLE: 
/* PCV:IGS20      OL/AL:FES2014b NONE     Y  ORB:CMB CLK:CMB
*  2025  1  1  9  0  0.00000000
PG01 -15963.267827  20532.029123   5396.362504 999999.999999  9 11 11           
PG02 -14234.672821  20385.047027   9234.654487   -278.414719  4  6  4  73       
PG03 -17038.762554  12232.489978 -16388.346167    637.171117  4  6  7  96       
PG04  -6538.721371  15697.127150 -20345.006460    505.088151  5  4  6  81       
PG05  25876.860148  -5404.958483   2746.590014   -197.719428  4  4  5  67       
PG06  10002.978054  11769.564976 -21515.365486    -86.884436  5  4  5  75       
PG07  -4785.638662  24645.812863   8469.026890    -14.093449  3  5  6  61       
PG08 -15011.741356   5280.946854  21191.129529    451.541731  4  6  7  66       
PG09   2093.267540  21326.001055 -15743.261952    511.040378  3  3  5  56       
PG10 -16344.306010 -10779.480518  18338.160074   -258.198756  6  6  5  91       
PG11  16635.611575  -1039.215378 -20623.905856   -752.528637  5  4  5  64       
PG12  20162.772773 -10273.847172 -14159.022256   -561.850078  5  6  3  48       
PG13  17257.552567   4773.705419  19464.047114    692.015020  4  4  4  49       
PG14  12462.067100  13283.742023  19454.718574    571.548478  4  5  4  78       
PG15  13807.586626  -7711.542820  20834.198367    246.444473  4  5  6  72       
PG16 -26717.309878  -1406.758295  -2055.266986    -88.809883  4  7  5  66       
PG17  12653.129532  23168.395326   1990.567873    494.159336  5  7  5  79       
PG18   3927.657437 -24041.786463  10337.281221   -659.210109  6  5  2  69       
PG19  17221.771120  18674.245201  -8619.360252    580.889933  6  7  5  44       
PG20  24716.576372    126.479200  -9454.990437    367.426997  3  5  5  53       
PG21 -16129.105968  14699.835031  14691.295760     99.497552  4  7  5  57       
PG22  18987.601975  10761.568013  15301.920476    -89.857501  5  6  6  85       
PG23   -996.426376 -14737.479648  22111.691331    395.129217  5  5  5  61       
PG24  14477.827989 -19477.644296   9841.274987   -468.365090  4  5  3  70       
PG25   6957.306597 -15619.451393 -20620.851140    497.386619  5  4  4  56       
PG26 -23047.563534  -5473.476601 -12578.955851    -30.783423  5  6  5  95       
PG27 -19356.038196  -6787.895733  16801.453481    -33.591541  4  7  7  71       
PG28  -9694.379786 -13796.775925 -20535.922640   -523.939213  4  6  5 106       
PG29   -457.670703 -21565.692162 -15460.492102   -551.015807  6  6  5  73       
PG30   4715.337989  19810.490932  17062.666050   -248.846184  3  5  4  81       
PG31 -15241.564343  -3861.552983 -21682.408062   -218.813278  3  4  5  96       
PG32 -16534.157717 -20823.639900  -1894.195265   -549.429594  6  6  6  70       
*  2025  1  1  9 15  0.00000000
PG01 -15823.249912  19733.890308   8108.420280 999999.999999  9 11 11           
PG02 -14090.693238  19220.433262  11770.358514   -278.406603  4  6  4  58       
PG03 -18770.051961  12298.874789 -14281.752535    637.178218  4  6  7  89       
PG04  -7965.835220  13787.006013 -21214.805618    505.093552  6  3  5  89       
PG05  26078.319453  -5224.419588   -127.261879   -197.719704  5  5  5  68       
PG06   8960.619086  13957.361031 -20641.460606    -86.909246  6  4  5  85       
PG07  -5356.366636  25231.941704   5768.283304    -14.092778  4  4  6  63       
PG08 -16491.107247   3379.209613  20513.567506    451.549209  4  6  7  64       
PG09    787.828115  19944.712134 -17582.918283    511.054250  4  4  5  85       
PG10 -14243.918748 -11096.591079  19828.930135   -258.213091  6  6  6  92       
PG11  15649.114625   1162.296106 -21379.380883   -752.528267  5  5  5  78       
PG12  21619.608484 -10148.197007 -11863.280992   -561.852086  5  5  3  39       
PG13  18209.427409   6734.649267  17999.999189    692.016417  4  3  4  53       
PG14  10207.256450  13610.245299  20495.489066    571.555140  3  5  5  78       
PG15  15530.559709  -5950.742487  20217.363876    246.448438  4  4  5  74       
PG16 -26374.146380  -1635.185168  -4848.147946    -88.801338  5  7  5  28       
PG17  12252.496674  23017.113178   4833.837706    494.144085  5  7  5  92       
PG18   4545.149684 -24896.606503   7699.081222   -659.209223  6  5  2  51       
PG19  17469.576730  19466.056662  -5941.694896    580.893937  7  7  4  58       
PG20  23604.031972    726.579194 -11935.924079    367.426693  3  5  5  63       
PG21 -15809.317860  12936.363500  16713.343884     99.499717  4  7  5  46       
PG22  17185.456887  10997.317827  17221.141413    -89.859249  5  6  6  39       
PG23   1481.557293 -15076.140541  21833.948920    395.136061  5  4  5  43       
PG24  14384.751903 -18097.644783  12246.707415   -468.361843  4  5  4  71       
PG25   9188.372819 -15817.795696 -19525.156385    497.386159  5  4  4  64       
PG26 -21600.785124  -6017.911484 -14710.818863    -30.796726  5  6  5  54       
PG27 -20354.188768  -8351.965128  14879.383759    -33.591128  5  7  7  96       
PG28  -8771.148084 -15886.638236 -19408.675588   -523.948280  3  6  5  80       
PG29    686.351199 -20074.058415 -17360.707354   -551.012511  7  6  5  66       
PG30   3791.118141  21415.669030  15214.640596   -248.838700  3  5  4  71       
PG31 -14236.333636  -6082.244687 -21825.606370   -218.812726  3  4  5  78       
PG32 -16398.692759 -21025.910173    955.378348   -549.423698  6  6  6  50       
*  2025  1  1  9 30  0.00000000
PG01 -15601.933419  18656.915965  10680.953923 999999.999999 10 11 12           
PG02 -13935.761514  17788.373808  14103.993530   -278.398461  5  6  3  69       
PG03 -20247.891078  12418.116706 -11930.480185    637.185327  5  6  7  72       
PG04  -9539.344860  11894.953088 -21718.140662    505.098997  6  3  5  56       
PG05  25972.149925  -4982.943782  -2998.951106   -197.721185  5  4  5  50       
PG06   8084.894686  16088.610575 -19409.139267    -86.934036  6  3  5  83       
PG07  -5796.881940  25551.890421   2966.859420    -14.092453  4  4  6  50       
PG08 -17996.534623   1629.770020  19482.070908    451.556789  5  6  7  58       
PG09   -714.024274  18491.640460 -19121.368060    511.068161  4  4  5  65       
PG10 -12017.719365 -11560.071180  20988.214144   -258.227399  6  6  6  62       
PG11  14755.635632   3472.259752 -21765.329403   -752.527787  6  5  5  66       
PG12  22814.896511 -10067.744564  -9365.828743   -561.854145  5  5  4  37       
PG13  19166.607411   8481.974640  16223.203811    692.017713  4  3  4  59       
PG14   7873.328486  14064.403659  21186.590858    571.561756  3  5  5  70       
PG15  17262.857491  -4335.561152  19237.275210    246.452709  4  4  5  64       
PG16 -25738.180268  -1907.790329  -7560.416761    -88.792731  5  6  5  67       
PG17  11657.165588  22631.844446   7593.565098    494.129028  5  6  5  80       
PG18   5007.383338 -25495.261930   4926.771925   -659.208373  6  5  2  69       
PG19  17586.808761  19991.879605  -3164.729871    580.897787  7  8  4  79       
PG20  22270.511211   1477.908850 -14209.106934    367.426646  4  5  5  71       
PG21 -15525.669521  10961.665933  18442.362286     99.500882  4  7  4  69       
PG22  15203.885104  11342.537060  18848.626157    -89.861178  5  6  6  60       
PG23   3887.576963 -15541.350173  21181.131308    395.142909  4  3  5  57       
PG24  14292.727898 -16457.074210  14431.601135   -468.358603  4  5  4  71       
PG25  11272.403557 -16101.188997 -18100.779215    497.385732  5  4  4  68       
PG26 -19965.323398  -6690.076693 -16596.729678    -30.810036  5  6  4  83       
PG27 -21279.392146  -9681.693131  12701.220927    -33.590737  5  7  7  88       
PG28  -8003.255330 -17882.618786 -17947.854499   -523.957351  3  6  5  65       
PG29   2023.928545 -18485.564951 -18961.788949   -551.009497  7  5  5  75       
PG30   3017.854119  22854.782318  13104.265781   -248.831246  3  5  4  71       
PG31 -13347.572822  -8351.082474 -21601.529111   -218.811831  3  4  5  62       
PG32 -16066.072611 -20991.996363   3788.755763   -549.417770  6  6  7  75       
EOF
